ONEWEB-0634             
1 56075U 23043AF  24318.67936466  .00000082  00000+0  18255-3 0  9993
2 56075  87.9109  14.7807 0001439  95.7921 264.3374 13.15549826 80074
ONEWEB-0635             
1 56076U 23043AG  24318.67460783  .00000068  00000+0  14642-3 0  9998
2 56076  87.9078  14.8266 0002211 102.0726 258.0652 13.15551149 80108
ONEWEB-0636             
1 56077U 23043AH  24318.89485867  .00000050  00000+0  99643-4 0  9999
2 56077  87.9105  14.7594 0002152 101.1111 259.0261 13.15550303 81025
ONEWEB-0637             
1 56078U 23043AJ  24318.66035352 -.00000018  00000+0 -82653-4 0  9994
2 56078  87.9108  14.7845 0002162 104.0358 256.1012 13.15550538 80104
ONEWEB-0647             
1 56079U 23043AK  24318.73165638 -.00000037  00000+0 -13116-3 0  9992
2 56079  87.9107  14.7851 0002067  95.7632 264.3734 13.15549605 80101
ONEWEB-0651             
1 56080U 23043AL  24318.87901573 -.00000037  00000+0 -13222-3 0  9993
2 56080  87.9109  14.7373 0002132 106.3656 253.7709 13.15550207 80128
ONEWEB-0718             
1 56081U 23043AM  24318.72214641 -.00000039  00000+0 -13741-3 0  9999
2 56081  87.9109  14.7532 0001305 101.1621 258.9656 13.15547640 80116
ONEWEB-0561             
1 56710U 23068A   24319.27952812  .00000092  00000+0  19427-3 0  9999
2 56710  87.9282  29.8543 0002444 102.6254 257.5152 13.20767722 73657
